[
    {
        "Altitude(m)": 578665.9944890932,
        "Argument of Periapsis(deg)": -0.037671934638287344,
        "Eccentricity": 0.0,
        "Inclination(deg)": 97.0,
        "Latitude(deg)": -39.843298080702645,
        "Longitude(deg)": -8.079953886796973,
        "Mean Anomaly(deg)": -39.89006121802083,
        "RAAN(deg)": 90.00991175603086,
        "Satellite Name": "Starlink Shell 3 1800",
        "Satellite Number": 1800,
        "Semi-Major Axis(m)": 6938478.169268562,
        "Time(s)": 950
    },
    {
        "Altitude(m)": 578411.2689236127,
        "Argument of Periapsis(deg)": -0.03806848131869037,
        "Eccentricity": 0.0,
        "Inclination(deg)": 97.0,
        "Latitude(deg)": -39.22613415357638,
        "Longitude(deg)": -8.248989574392802,
        "Mean Anomaly(deg)": -39.264585020315785,
        "RAAN(deg)": 90.01001609030487,
        "Satellite Name": "Starlink Shell 3 1800",
        "Satellite Number": 1800,
        "Semi-Major Axis(m)": 6938478.169268562,
        "Time(s)": 960
    },
    {
        "Altitude(m)": 578156.7852642622,
        "Argument of Periapsis(deg)": -0.0384650279990934,
        "Eccentricity": 0.0,
        "Inclination(deg)": 97.0,
        "Latitude(deg)": -38.60873963998121,
        "Longitude(deg)": -8.415823576917978,
        "Mean Anomaly(deg)": -38.63910882261071,
        "RAAN(deg)": 90.01012042457886,
        "Satellite Name": "Starlink Shell 3 1800",
        "Satellite Number": 1800,
        "Semi-Major Axis(m)": 6938478.169268562,
        "Time(s)": 970
    },
    {
        "Altitude(m)": 577902.6422402688,
        "Argument of Periapsis(deg)": -0.03886157467949641,
        "Eccentricity": 0.0,
        "Inclination(deg)": 97.0,
        "Latitude(deg)": -37.991119993941716,
        "Longitude(deg)": -8.58054047853039,
        "Mean Anomaly(deg)": -38.01363262490576,
        "RAAN(deg)": 90.01022475885287,
        "Satellite Name": "Starlink Shell 3 1800",
        "Satellite Number": 1800,
        "Semi-Major Axis(m)": 6938478.169268562,
        "Time(s)": 980
    },
    {
        "Altitude(m)": 577648.9382637133,
        "Argument of Periapsis(deg)": -0.03925812135989944,
        "Eccentricity": 0.0,
        "Inclination(deg)": 97.0,
        "Latitude(deg)": -37.373280478135015,
        "Longitude(deg)": -8.743220616315671,
        "Mean Anomaly(deg)": -37.3881564272007,
        "RAAN(deg)": 90.0103290931269,
        "Satellite Name": "Starlink Shell 3 1800",
        "Satellite Number": 1800,
        "Semi-Major Axis(m)": 6938478.169268562,
        "Time(s)": 990
    }
]